OBJECT_NAME,OBJECT_ID,EPOCH,MEAN_MOTION,ECCENTRICITY,INCLINATION,RA_OF_ASC_NODE,ARG_OF_PERICENTER,MEAN_ANOMALY,EPHEMERIS_TYPE,CLASSIFICATION_TYPE,NORAD_CAT_ID,ELEMENT_SET_NO,REV_AT_EPOCH,BSTAR,MEAN_MOTION_DOT,MEAN_MOTION_DDOT
ONEWEB-0641,2023-029K,2026-07-08T20:41:52.025280,13.19732088,.00020579,87.9193,300.6496,106.5945,253.5414,0,U,55805,999,16177,-.25007361E-2,-.988E-5,0
ONEWEB-0642,2023-029L,2026-07-11T06:48:41.808672,13.19725761,.0002601,87.9187,300.1787,115.7875,244.3526,0,U,55806,999,16208,-.19532E-3,-.65E-6,0
ONEWEB-0643,2023-029M,2026-07-11T04:44:08.928384,13.14502359,.0002635,87.8962,284.9439,108.7562,251.3854,0,U,55807,999,16254,-.30092E-3,-.99E-6,0
ONEWEB-0644,2023-029N,2026-07-10T07:02:34.997568,13.19725497,.00022396,87.9181,300.3764,108.2878,251.8498,0,U,55808,999,16195,.42733819E-4,.3E-6,0
ONEWEB-0645,2023-029P,2026-07-11T07:13:42.848832,13.19725753,.0001817,87.9185,300.1735,113.6104,246.5220,0,U,55809,999,16208,-.38742E-4,-.3E-7,0
ONEWEB-0646,2023-029Q,2026-07-10T06:10:15.581856,13.19726532,.0002183,87.9185,300.3809,107.2590,252.8782,0,U,55810,999,16193,.19234508E-3,.9E-6,0
ONEWEB-0648,2023-029R,2026-07-11T05:48:05.217120,13.14503159,.0002042,87.8982,284.9109,125.1484,234.9837,0,U,55811,999,16255,.64402E-3,.252E-5,0
ONEWEB-0649,2023-029S,2026-07-10T06:46:38.523648,13.19725870,.00019706,87.9186,300.3739,108.6388,251.4959,0,U,55812,999,16197,-.17023109E-3,-.55E-6,0
ONEWEB-0650,2023-029T,2026-07-09T07:00:31.856832,13.19726002,.0002359,87.9183,300.5733,115.5231,244.6146,0,U,55813,999,16181,.61782119E-4,.38E-6,0
ONEWEB-0652,2023-029U,2026-07-11T05:20:40.809120,13.14502357,.0002,87.8966,284.9223,95.8538,264.2820,0,U,55814,999,16252,-.51399E-4,-.6E-7,0
ONEWEB-0653,2023-029V,2026-07-10T05:12:54.600768,13.14502047,.00019469,87.8967,285.1197,99.3095,260.8254,0,U,55815,999,16242,-.62644086E-3,-.219E-5,0
ONEWEB-0654,2023-029W,2026-07-11T04:50:59.025984,13.14502076,.0001908,87.8971,284.9199,89.8982,270.2366,0,U,55816,999,16257,-.42942E-3,-.146E-5,0
ONEWEB-0656,2023-029X,2026-07-09T04:10:21.629280,13.20769953,.00019948,87.9189,270.0495,86.5181,273.6181,0,U,55817,999,16405,.16573602E-3,.8E-6,0
ONEWEB-0657,2023-029Y,2026-07-11T06:12:20.102400,13.19726771,.0002297,87.9182,300.1807,81.7705,278.3688,0,U,55818,999,16208,.10331E-3,.54E-6,0
ONEWEB-0658,2023-029Z,2026-07-11T06:05:29.006880,13.19726094,.0002263,87.9194,300.1593,108.8309,251.3069,0,U,55819,999,16209,.15744E-3,.76E-6,0
ONEWEB-0660,2023-029AA,2026-07-11T06:08:37.669920,13.14501754,.0001873,87.8972,284.9056,115.6365,244.4958,0,U,55820,999,16256,.59253E-3,.232E-5,0
ONEWEB-0661,2023-029AB,2026-07-11T05:09:16.001856,13.14502461,.0001797,87.8960,284.9532,104.0367,256.0963,0,U,55821,999,16254,-.59913E-3,-.209E-5,0
ONEWEB-0662,2023-029AC,2026-07-11T04:09:53.885376,13.14502140,.0001952,87.8963,284.9670,119.1320,241.0005,0,U,55822,999,16258,.84669E-3,.327E-5,0
ONEWEB-0663,2023-029AD,2026-07-11T04:12:40.037760,13.20871332,.0002105,87.9189,269.7225,110.2920,249.8440,0,U,55823,999,16431,.14226E-3,.71E-6,0
ONEWEB-0664,2023-029AE,2026-07-09T03:50:59.879328,13.20772061,.00015773,87.9180,270.1016,99.7884,260.3428,0,U,55824,999,16404,.13351157E-3,.67E-6,0
ONEWEB-0665,2023-029AF,2026-07-11T05:04:41.911680,13.14502292,.0001976,87.8958,284.9348,108.6944,251.4400,0,U,55825,999,16256,-.57048E-3,-.199E-5,0
ONEWEB-0666,2023-029AG,2026-07-11T04:46:42.062016,13.20772611,.0002652,87.9177,269.6854,86.4432,273.7004,0,U,55826,999,16432,-.11095E-3,-.32E-6,0
ONEWEB-0667,2023-029AH,2026-07-11T04:39:25.654752,13.20772692,.0001972,87.9193,269.6482,101.8527,258.2827,0,U,55827,999,16431,-.18555E-3,-.62E-6,0
ONEWEB-0669,2023-029AJ,2026-07-10T04:53:58.718112,13.20773103,.00017594,87.9187,269.8547,85.5490,274.5844,0,U,55828,999,16418,-.56134285E-4,-.1E-6,0
ONEWEB-0670,2023-029AK,2026-07-08T18:05:13.017696,13.14501369,.00015498,87.8953,285.4426,101.8777,258.2527,0,U,55829,999,16226,-.46317362E-3,-.159E-5,0
ONEWEB-0671,2023-029AL,2026-07-11T05:58:38.845344,13.19725771,.0001947,87.9185,300.1838,105.3475,254.7873,0,U,55830,999,16207,-.18304E-4,.6E-7,0
ONEWEB-0672,2023-029AM,2026-07-10T04:46:42.705696,13.20769753,.0002125,87.9190,269.8492,93.4132,266.7244,0,U,55831,999,16418,-.44544502E-4,-.5E-7,0
ONEWEB-0673,2023-029AN,2026-07-11T07:14:50.234784,13.19724857,.0001671,87.9186,300.1683,97.1499,262.9824,0,U,55832,999,16208,.17179E-3,.82E-6,0
ONEWEB-0674,2023-029AP,2026-07-11T05:36:39.336768,13.14501607,.0001637,87.8957,284.9244,101.4166,258.7148,0,U,55833,999,16257,.28987E-3,.12E-5,0
ONEWEB-0675,2023-029AQ,2026-07-11T11:14:48.283296,13.19723524,.0002254,87.9187,300.1417,98.1212,262.0176,0,U,55834,999,16212,-.11888E-3,-.35E-6,0
