ONEWEB-0641             
1 55805U 23029K   26189.86240770 -.00000988  00000+0 -25007-2 0  9991
2 55805  87.9193 300.6496 0002057 106.5945 253.5414 13.19732088161772
ONEWEB-0642             
1 55806U 23029L   26192.28381723 -.00000065  00000+0 -19532-3 0  9999
2 55806  87.9187 300.1787 0002601 115.7875 244.3526 13.19725761162080
ONEWEB-0643             
1 55807U 23029M   26192.19732556 -.00000099  00000+0 -30092-3 0  9995
2 55807  87.8962 284.9439 0002635 108.7562 251.3854 13.14502359162540
ONEWEB-0644             
1 55808U 23029N   26191.29346062  .00000030  00000+0  42734-4 0  9999
2 55808  87.9181 300.3764 0002239 108.2878 251.8498 13.19725497161952
ONEWEB-0645             
1 55809U 23029P   26192.30119038 -.00000003  00000+0 -38742-4 0  9990
2 55809  87.9185 300.1735 0001817 113.6104 246.5220 13.19725753162080
ONEWEB-0646             
1 55810U 23029Q   26191.25712479  .00000090  00000+0  19235-3 0  9992
2 55810  87.9185 300.3809 0002183 107.2590 252.8782 13.19726532161933
ONEWEB-0648             
1 55811U 23029R   26192.24172705  .00000252  00000+0  64402-3 0  9991
2 55811  87.8982 284.9109 0002042 125.1484 234.9837 13.14503159162557
ONEWEB-0649             
1 55812U 23029S   26191.28239032 -.00000055  00000+0 -17023-3 0  9992
2 55812  87.9186 300.3739 0001970 108.6388 251.4959 13.19725870161970
ONEWEB-0650             
1 55813U 23029T   26190.29203538  .00000038  00000+0  61782-4 0  9996
2 55813  87.9183 300.5733 0002359 115.5231 244.6146 13.19726002161813
ONEWEB-0652             
1 55814U 23029U   26192.22269455 -.00000006  00000+0 -51399-4 0  9992
2 55814  87.8966 284.9223 0002000  95.8538 264.2820 13.14502357162520
ONEWEB-0653             
1 55815U 23029V   26191.21729862 -.00000219  00000+0 -62644-3 0  9994
2 55815  87.8967 285.1197 0001946  99.3095 260.8254 13.14502047162428
ONEWEB-0654             
1 55816U 23029W   26192.20207206 -.00000146  00000+0 -42942-3 0  9996
2 55816  87.8971 284.9199 0001908  89.8982 270.2366 13.14502076162577
ONEWEB-0656             
1 55817U 23029X   26190.17386145  .00000080  00000+0  16574-3 0  9998
2 55817  87.9189 270.0495 0001994  86.5181 273.6181 13.20769953164058
ONEWEB-0657             
1 55818U 23029Y   26192.25856600  .00000054  00000+0  10331-3 0  9994
2 55818  87.9182 300.1807 0002297  81.7705 278.3688 13.19726771162084
ONEWEB-0658             
1 55819U 23029Z   26192.25380795  .00000076  00000+0  15744-3 0  9999
2 55819  87.9194 300.1593 0002263 108.8309 251.3069 13.19726094162097
ONEWEB-0660             
1 55820U 23029AA  26192.25599155  .00000232  00000+0  59253-3 0  9990
2 55820  87.8972 284.9056 0001873 115.6365 244.4958 13.14501754162560
ONEWEB-0661             
1 55821U 23029AB  26192.21476854 -.00000209  00000+0 -59913-3 0  9996
2 55821  87.8960 284.9532 0001797 104.0367 256.0963 13.14502461162545
ONEWEB-0662             
1 55822U 23029AC  26192.17354034  .00000327  00000+0  84669-3 0  9992
2 55822  87.8963 284.9670 0001952 119.1320 241.0005 13.14502140162580
ONEWEB-0663             
1 55823U 23029AD  26192.17546340  .00000071  00000+0  14226-3 0  9994
2 55823  87.9189 269.7225 0002105 110.2920 249.8440 13.20871332164319
ONEWEB-0664             
1 55824U 23029AE  26190.16041527  .00000067  00000+0  13351-3 0  9992
2 55824  87.9180 270.1016 0001577  99.7884 260.3428 13.20772061164040
ONEWEB-0665             
1 55825U 23029AF  26192.21159620 -.00000199  00000+0 -57048-3 0  9994
2 55825  87.8958 284.9348 0001976 108.6944 251.4400 13.14502292162560
ONEWEB-0666             
1 55826U 23029AG  26192.19909794 -.00000032  00000+0 -11095-3 0  9995
2 55826  87.9177 269.6854 0002652  86.4432 273.7004 13.20772611164328
ONEWEB-0667             
1 55827U 23029AH  26192.19404693 -.00000062  00000+0 -18555-3 0  9995
2 55827  87.9193 269.6482 0001972 101.8527 258.2827 13.20772692164314
ONEWEB-0669             
1 55828U 23029AJ  26191.20415183 -.00000010  00000+0 -56134-4 0  9992
2 55828  87.9187 269.8547 0001759  85.5490 274.5844 13.20773103164185
ONEWEB-0670             
1 55829U 23029AK  26189.75362289 -.00000159  00000+0 -46317-3 0  9993
2 55829  87.8953 285.4426 0001549 101.8777 258.2527 13.14501369162263
ONEWEB-0671             
1 55830U 23029AL  26192.24906071  .00000006  00000+0 -18304-4 0  9992
2 55830  87.9185 300.1838 0001947 105.3475 254.7873 13.19725771162075
ONEWEB-0672             
1 55831U 23029AM  26191.19910539 -.00000005  00000+0 -44545-4 0  9996
2 55831  87.9190 269.8492 0002125  93.4132 266.7244 13.20769753164184
ONEWEB-0673             
1 55832U 23029AN  26192.30197031  .00000082  00000+0  17179-3 0  9990
2 55832  87.9186 300.1683 0001671  97.1499 262.9824 13.19724857162086
ONEWEB-0674             
1 55833U 23029AP  26192.23378862  .00000120  00000+0  28987-3 0  9998
2 55833  87.8957 284.9244 0001637 101.4166 258.7148 13.14501607162573
ONEWEB-0675             
1 55834U 23029AQ  26192.46861439 -.00000035  00000+0 -11888-3 0  9990
2 55834  87.9187 300.1417 0002254  98.1212 262.0176 13.19723524162122
